[{"OBJECT_NAME":"ONEWEB-0521","OBJECT_ID":"2022-138AC","EPOCH":"2026-03-09T23:52:17.048064","MEAN_MOTION":13.19724197,"ECCENTRICITY":0.00014935,"INCLINATION":87.9237,"RA_OF_ASC_NODE":324.7113,"ARG_OF_PERICENTER":73.5755,"MEAN_ANOMALY":286.5541,"EPHEMERIS_TYPE":0,"CLASSIFICATION_TYPE":"U","NORAD_CAT_ID":54139,"ELEMENT_SET_NO":999,"REV_AT_EPOCH":16368,"BSTAR":-0.00069749736,"MEAN_MOTION_DOT":-2.66e-6,"MEAN_MOTION_DDOT":0},{"OBJECT_NAME":"SCOUT A R\/B","OBJECT_ID":"1970-067B","EPOCH":"2026-03-09T22:54:58.932864","MEAN_MOTION":13.49659171,"ECCENTRICITY":0.01746933,"INCLINATION":90.0072,"RA_OF_ASC_NODE":234.1093,"ARG_OF_PERICENTER":132.7059,"MEAN_ANOMALY":341.188,"EPHEMERIS_TYPE":0,"CLASSIFICATION_TYPE":"U","NORAD_CAT_ID":4515,"ELEMENT_SET_NO":999,"REV_AT_EPOCH":73195,"BSTAR":0.00023152136,"MEAN_MOTION_DOT":1.72e-6,"MEAN_MOTION_DDOT":0}]
